[{"OBJECT_NAME":"STARLINK-1417","OBJECT_ID":"2020-035AN","EPOCH":"2026-03-09T06:25:21.276768","MEAN_MOTION":15.12514223,"ECCENTRICITY":0.00021286,"INCLINATION":53.0515,"RA_OF_ASC_NODE":56.2233,"ARG_OF_PERICENTER":233.0338,"MEAN_ANOMALY":127.0459,"EPHEMERIS_TYPE":0,"CLASSIFICATION_TYPE":"U","NORAD_CAT_ID":45693,"ELEMENT_SET_NO":999,"REV_AT_EPOCH":31883,"BSTAR":0.0019843855,"MEAN_MOTION_DOT":0.00034834,"MEAN_MOTION_DDOT":0},{"OBJECT_NAME":"STARLINK-6143","OBJECT_ID":"2023-090AJ","EPOCH":"2026-03-09T22:00:01.999584","MEAN_MOTION":15.10483592,"ECCENTRICITY":0.00018044,"INCLINATION":42.9996,"RA_OF_ASC_NODE":260.475,"ARG_OF_PERICENTER":280.1349,"MEAN_ANOMALY":184.9335,"EPHEMERIS_TYPE":0,"CLASSIFICATION_TYPE":"U","NORAD_CAT_ID":57133,"ELEMENT_SET_NO":999,"REV_AT_EPOCH":543,"BSTAR":0.0042723921,"MEAN_MOTION_DOT":0.00072083,"MEAN_MOTION_DDOT":0}]
